OBJECT_NAME,OBJECT_ID,EPOCH,MEAN_MOTION,ECCENTRICITY,INCLINATION,RA_OF_ASC_NODE,ARG_OF_PERICENTER,MEAN_ANOMALY,EPHEMERIS_TYPE,CLASSIFICATION_TYPE,NORAD_CAT_ID,ELEMENT_SET_NO,REV_AT_EPOCH,BSTAR,MEAN_MOTION_DOT,MEAN_MOTION_DDOT
KUZGTU 1 (RS47S),2023-091AV,2026-06-11T14:31:18.637248,15.29733293,.00123404,97.5072,227.0284,115.2102,245.0419,0,U,57217,999,16352,.41090641E-3,.1179E-3,0
SONATE-2,2024-043Q,2026-06-11T08:38:03.538752,15.58280489,.00067963,97.5520,312.4010,215.3687,144.7119,0,U,59112,999,12698,.42601652E-3,.32247E-3,0
MESAT1,2024-125G,2026-06-11T14:24:04.519584,15.62604296,.00090601,97.2312,19.9579,224.7831,135.2697,0,U,60209,999,10869,.56470453E-3,.50616E-3,0
OOV-CUBE (TUBSAT-30),2024-128F,2026-06-11T14:22:54.210720,15.02751187,.00453273,61.9950,245.0577,132.4986,227.9949,0,U,60240,999,10527,.15979726E-3,.1977E-4,0
COLIBRI-S (RS67S),2024-199M,2026-06-11T15:07:59.985696,15.47495504,.00063633,97.3008,36.4356,306.0613,54.0048,0,U,61746,999,13655,.41715575E-3,.21375E-3,0
HORS 3 (RS81S),2024-199U,2026-06-11T14:51:13.360896,15.54587599,.00039165,97.2992,38.3507,312.7003,47.3921,0,U,61753,999,13669,.52081765E-3,.34401E-3,0
HORS 4 (RS82S),2024-199V,2026-06-11T14:18:19.974528,15.59165300,.00030171,97.2940,39.4932,297.0688,63.0261,0,U,61754,999,13677,.58730017E-3,.46046E-3,0
ARCTICSAT 1 (RS74S),2024-199AD,2026-06-11T12:18:28.078272,16.17145326,.00094935,97.2842,46.4180,212.9334,147.1363,0,U,61762,999,13721,.12655227E-2,.1934965E-1,.2353777E-5
SIT-2086,2024-199AF,2026-06-11T14:10:09.117120,15.52701713,.0004357,97.2948,38.8176,282.3912,77.6854,0,U,61764,999,13356,.55335814E-3,.34146E-3,0
HYPERVIEW 1G (RS66S),2024-199AP,2026-06-11T14:22:40.328832,15.74379761,.00026181,97.2896,42.0416,250.8791,109.2191,0,U,61772,999,13379,.83249335E-3,.121518E-2,0
ALTAIR (RS65S),2024-199AW,2026-06-11T13:52:25.972032,15.36921924,.00116351,97.3045,31.9666,333.7214,26.3439,0,U,61779,999,13625,.29803228E-3,.10705E-3,0
ASRTU-1 (AO-123),2024-199AY,2026-06-11T15:01:48.142560,15.35596437,.00128654,97.3015,31.3477,335.9422,24.1219,0,U,61781,999,13307,.21092931E-3,.7237E-4,0
SAMSAT-IONOSPHERE (RS75S),2024-199BB,2026-06-11T14:21:04.295232,15.57138226,.00060483,97.2962,38.3559,306.0953,53.9742,0,U,61784,999,13669,.58944623E-3,.42844E-3,0
RTU MIREA 1 (RS51S),2024-199BC,2026-06-11T15:13:47.372448,15.60483499,.0005522,97.2953,39.1968,298.0744,61.9955,0,U,61785,999,13360,.64565632E-3,.53301E-3,0
TEVEL2-4,2025-052D,2026-06-11T04:23:24.796896,15.34397986,.00046998,97.3916,58.5659,114.3674,245.8060,0,U,63213,999,6919,.46925064E-3,.15571E-3,0
TEVEL2-5,2025-052E,2026-06-11T04:51:58.157280,15.34228834,.00045874,97.3918,58.5347,115.8505,244.3212,0,U,63214,999,6919,.46795208E-3,.15444E-3,0
TEVEL2-6,2025-052F,2026-06-11T05:09:31.549536,15.34192620,.00045066,97.3920,58.5314,115.9282,244.2426,0,U,63215,999,6919,.47617787E-3,.15699E-3,0
TEVEL2-1,2025-052H,2026-06-11T15:12:04.421664,15.33683699,.00044832,97.3895,58.5815,123.9647,236.2022,0,U,63217,999,6924,.51094175E-3,.16584E-3,0
TEVEL2-3,2025-052J,2026-06-11T15:04:38.722080,15.33736393,.00044806,97.3891,58.5978,124.2952,235.8715,0,U,63218,999,6924,.51936053E-3,.16887E-3,0
TEVEL2-2,2025-052K,2026-06-11T15:12:34.161408,15.33691849,.00044377,97.3892,58.5842,124.7997,235.3664,0,U,63219,999,6924,.51153374E-3,.16607E-3,0
TEVEL2-9,2025-052AD,2026-06-11T14:29:45.871296,15.31727154,.0007282,97.3954,57.9412,146.0799,214.0909,0,U,63237,999,6917,.50885777E-3,.15538E-3,0
TEVEL2-7,2025-052AE,2026-06-10T23:46:13.904544,15.31416691,.00073222,97.3955,57.2476,148.6596,211.5083,0,U,63238,999,6907,.49054807E-3,.1483E-3,0
TEVEL2-8,2025-052AF,2026-06-11T10:56:39.917184,15.31412987,.00073879,97.3954,57.6893,147.9653,212.2039,0,U,63239,999,6914,.44363135E-3,.13401E-3,0
INNOSAT 16 (RS92S7),2025-155C,2026-06-11T14:57:11.306592,15.25397996,.00098666,97.4555,129.7686,195.2389,164.8553,0,U,64878,999,7982,.2026412E-3,.505E-4,0
GEOSCAN 6 (RS92S6),2025-155D,2026-06-11T14:56:50.354592,15.30047938,.00075965,97.4547,131.1533,180.8724,179.2504,0,U,64879,999,7991,.31981058E-3,.9233E-4,0
GEOSCAN 1 (RS92S1),2025-155E,2026-06-11T15:03:27.574272,15.30634689,.00075516,97.4543,131.3011,180.4484,179.6751,0,U,64880,999,7992,.33102364E-3,.9736E-4,0
239ALFEROV (RS61S),2025-155F,2026-06-11T14:31:05.925216,15.32791043,.00072494,97.4544,131.8213,177.1686,182.9598,0,U,64881,999,7995,.43405646E-3,.13687E-3,0
GEOSCAN 2 (RS92S2),2025-155Q,2026-06-11T14:55:46.910208,15.30906006,.00074104,97.4542,131.4461,166.6043,193.5396,0,U,64890,999,7993,.32897624E-3,.9757E-4,0
GEOSCAN 5 (RS92S5),2025-155R,2026-06-11T14:16:57.656928,15.33109486,.00059385,97.4536,131.9467,180.3950,179.7288,0,U,64891,999,7996,.42447238E-3,.13513E-3,0
GEOSCAN 4 (RS92S4),2025-155S,2026-06-11T13:54:59.884992,15.33260297,.00059821,97.4540,131.9782,180.6150,179.5086,0,U,64892,999,7996,.42615402E-3,.13632E-3,0
